STARLINK-31423          
1 59242U 24049M   26068.56228279 -.00001515  00000+0 -45549-4 0  9998
2 59242  43.0005 144.5037 0001346 254.2471 105.8232 15.27583183112388
2025-313BD              
1 67299U 25313BD  26068.62968741  .00081010  00000+0  27634-2 0  9995
2 67299  97.3970 145.2850 0007287 333.4514  26.6352 15.30002360 10838
